[{"OBJECT_NAME":"STARLINK-3547","OBJECT_ID":"2022-022AP","EPOCH":"2026-03-09T22:42:59.868864","MEAN_MOTION":15.08839838,"ECCENTRICITY":0.00013817,"INCLINATION":53.2184,"RA_OF_ASC_NODE":357.9683,"ARG_OF_PERICENTER":96.0513,"MEAN_ANOMALY":264.0637,"EPHEMERIS_TYPE":0,"CLASSIFICATION_TYPE":"U","NORAD_CAT_ID":51889,"ELEMENT_SET_NO":999,"REV_AT_EPOCH":22328,"BSTAR":-1.74758e-6,"MEAN_MOTION_DOT":-3.16e-6,"MEAN_MOTION_DDOT":0},{"OBJECT_NAME":"ICON","OBJECT_ID":"2019-068A","EPOCH":"2026-03-09T22:35:01.599072","MEAN_MOTION":15.06276737,"ECCENTRICITY":0.00134076,"INCLINATION":26.9847,"RA_OF_ASC_NODE":325.9297,"ARG_OF_PERICENTER":187.0145,"MEAN_ANOMALY":173.0229,"EPHEMERIS_TYPE":0,"CLASSIFICATION_TYPE":"U","NORAD_CAT_ID":44628,"ELEMENT_SET_NO":999,"REV_AT_EPOCH":35105,"BSTAR":0.00030799545,"MEAN_MOTION_DOT":4.879e-5,"MEAN_MOTION_DDOT":0}]
